NORAD_CAT_ID,OBJECT_NAME,OBJECT_TYPE,EPOCH,MEAN_MOTION,ECCENTRICITY,INCLINATION,RA_OF_ASC_NODE,ARG_OF_PERICENTER,MEAN_ANOMALY,BSTAR,MEAN_MOTION_DOT,MEAN_MOTION_DDOT,TLE_LINE0,TLE_LINE1,TLE_LINE2,SEMIMAJOR_AXIS,PERIOD,APOGEE,PERIGEE,DECAYED
53168.0,STARLINK-4105,PAYLOAD,2023-10-12 10:04:14,15.08833093,0.0001369,53.2144,151.3198,86.3729,273.742,0.00053185,8.185e-05,0.0,0 STARLINK-4105,1 53168U 22083AN  23285.41960798  .00008185  00000-0  53185-3 0  9999,2 53168  53.2144 151.3198 0001369  86.3729 273.7420 15.08833093 69253,6917.902,95.438,540.714,538.819,0.0
53168.0,STARLINK-4105,PAYLOAD,2023-10-12 22:47:18,15.08856831,0.0001376,53.2145,148.941,83.853,276.2619,0.001049,0.00016454,0.0,0 STARLINK-4105,1 53168U 22083AN  23285.94952442  .00016454  00000-0  10490-2 0  9993,2 53168  53.2145 148.9410 0001376  83.8530 276.2619 15.08856831 68705,6917.829,95.436,540.646,538.742,0.0
53168.0,STARLINK-4105,PAYLOAD,2023-10-13 21:02:42,15.08864091,0.0001281,53.2147,144.7763,96.573,263.5408,0.00078769,0.00012279,0.0,0 STARLINK-4105,1 53168U 22083AN  23286.87687766  .00012279  00000-0  78769-3 0  9995,2 53168  53.2147 144.7763 0001281  96.5730 263.5408 15.08864091 69477,6917.807,95.436,540.558,538.786,0.0
53168.0,STARLINK-4105,PAYLOAD,2023-10-14 08:10:23,15.08855824,0.0001298,53.2142,142.6956,85.0531,275.0609,0.00066238,0.00010274,0.0,0 STARLINK-4105,1 53168U 22083AN  23287.34055497  .00010274  00000-0  66238-3 0  9999,2 53168  53.2142 142.6956 0001298  85.0531 275.0609 15.08855824 69546,6917.832,95.437,540.595,538.799,0.0
53168.0,STARLINK-4105,PAYLOAD,2023-10-14 20:53:29,15.08842935,0.0001343,53.2148,140.3159,96.8652,263.2493,4.998e-05,5.08e-06,0.0,0 STARLINK-4105,1 53168U 22083AN  23287.87047796  .00000508  00000-0  49980-4 0  9995,2 53168  53.2148 140.3159 0001343  96.8652 263.2493 15.08842935 69625,6917.871,95.437,540.665,538.807,0.0
53168.0,STARLINK-4105,PAYLOAD,2023-10-15 14:22:43,15.0883911,0.0001461,53.2147,137.0431,92.6013,267.5147,-7.3544e-05,-1.458e-05,0.0,0 STARLINK-4105,1 53168U 22083AN  23288.59912007 -.00001458  00000-0 -73544-4 0  9991,2 53168  53.2147 137.0431 0001461  92.6013 267.5147 15.08839110 69103,6917.883,95.438,540.759,538.737,0.0
53168.0,STARLINK-4105,PAYLOAD,2023-10-15 20:44:16,15.08843277,0.0001352,53.215,135.8541,92.7947,267.32,-1.3011e-05,-4.95e-06,0.0,0 STARLINK-4105,1 53168U 22083AN  23288.86407906 -.00000495  00000-0 -13011-4 0  9991,2 53168  53.2150 135.8541 0001352  92.7947 267.3200 15.08843277 69142,6917.87,95.437,540.671,538.8,0.0
53168.0,STARLINK-4105,PAYLOAD,2023-10-15 23:55:02,15.08843423,0.0001349,53.2149,135.2595,92.6928,267.4219,1.9776e-05,2.7e-07,0.0,0 STARLINK-4105,1 53168U 22083AN  23288.99655904  .00000027  00000-0  19776-4 0  9991,2 53168  53.2149 135.2595 0001349  92.6928 267.4219 15.08843423 69792,6917.87,95.437,540.668,538.802,0.0
53168.0,STARLINK-4105,PAYLOAD,2023-10-16 17:24:15,15.08866245,0.0001553,53.215,131.9878,84.6509,275.466,-0.0006063,-9.931e-05,0.0,0 STARLINK-4105,1 53168U 22083AN  23289.72518426 -.00009931  00000-0 -60630-3 0  9999,2 53168  53.2150 131.9878 0001553  84.6509 275.4660 15.08866245 69903,6917.8,95.436,540.74,538.591,0.0
53168.0,STARLINK-4105,PAYLOAD,2023-10-17 06:07:22,15.08843033,0.0001307,53.215,129.6089,87.8555,272.2586,0.00010652,1.408e-05,0.0,0 STARLINK-4105,1 53168U 22083AN  23290.25511882  .00001408  00000-0  10652-3 0  9996,2 53168  53.2150 129.6089 0001307  87.8555 272.2586 15.08843033 69984,6917.871,95.437,540.64,538.832,0.0
53168.0,STARLINK-4105,PAYLOAD,2023-10-17 20:25:51,15.08836651,0.000117,53.2159,126.9333,97.9875,262.125,9.7407e-05,1.263e-05,0.0,0 STARLINK-4105,1 53168U 22083AN  23290.85128634  .00001263  00000-0  97407-4 0  9994,2 53168  53.2159 126.9333 0001170  97.9875 262.1250 15.08836651 70076,6917.891,95.438,540.565,538.946,0.0
53168.0,STARLINK-4105,PAYLOAD,2023-10-17 23:36:36,15.08840465,0.0001301,53.2147,126.3381,95.8631,264.2509,8.2037e-05,1.018e-05,0.0,0 STARLINK-4105,1 53168U 22083AN  23290.98376110  .00001018  00000-0  82037-4 0  9993,2 53168  53.2147 126.3381 0001301  95.8631 264.2509 15.08840465 69462,6917.879,95.438,540.644,538.844,0.0
53168.0,STARLINK-4105,PAYLOAD,2023-10-18 15:30:28,15.08836269,0.0001313,53.215,123.3642,87.6725,272.4418,2.6e-05,1.26e-06,0.0,0 STARLINK-4105,1 53168U 22083AN  23291.64616516  .00000126  00000-0  26000-4 0  9991,2 53168  53.2150 123.3642 0001313  87.6725 272.4418 15.08836269 69567,6917.892,95.438,540.665,538.848,0.0
53168.0,STARLINK-4105,PAYLOAD,2023-10-18 23:27:24,15.08844428,0.0001909,53.2133,121.8764,89.996,270.1251,-2.111e-05,-6.24e-06,0.0,0 STARLINK-4105,1 53168U 22083AN  23291.97736310 -.00000624  00000-0 -21110-4 0  9994,2 53168  53.2133 121.8764 0001909  89.9960 270.1251 15.08844428 70246,6917.867,95.437,541.052,538.411,0.0
53168.0,STARLINK-4105,PAYLOAD,2023-10-19 12:10:29,15.08842221,0.0001555,53.2144,119.4984,87.287,272.83,0.00018138,2.6e-05,0.0,0 STARLINK-4105,1 53168U 22083AN  23292.50728380  .00002600  00000-0  18138-3 0  9991,2 53168  53.2144 119.4984 0001555  87.2870 272.8300 15.08842221 69693,6917.874,95.437,540.814,538.663,0.0
53168.0,STARLINK-4105,PAYLOAD,2023-10-19 15:21:15,15.08845556,0.0001632,53.2143,118.9037,87.3458,272.7721,0.00021858,3.193e-05,0.0,0 STARLINK-4105,1 53168U 22083AN  23292.63976234  .00003193  00000-0  21858-3 0  9999,2 53168  53.2143 118.9037 0001632  87.3458 272.7721 15.08845556 69717,6917.863,95.437,540.857,538.599,0.0
53168.0,STARLINK-4105,PAYLOAD,2023-10-20 12:01:16,15.08842023,0.0001632,53.214,115.038,88.413,271.7049,4.9716e-05,5.03e-06,0.0,0 STARLINK-4105,1 53168U 22083AN  23293.50088376  .00000503  00000-0  49716-4 0  9993,2 53168  53.2140 115.0380 0001632  88.4130 271.7049 15.08842023 70475,6917.874,95.437,540.868,538.61,0.0
53168.0,STARLINK-4105,PAYLOAD,2023-10-21 11:52:03,15.08841042,0.0001083,53.2159,110.5781,85.405,274.7066,9.5408e-05,1.231e-05,0.0,0 STARLINK-4105,1 53168U 22083AN  23294.49448464  .00001231  00000-0  95408-4 0  9998,2 53168  53.2159 110.5781 0001083  85.4050 274.7066 15.08841042 69995,6917.877,95.437,540.491,538.993,0.0
53168.0,STARLINK-4105,PAYLOAD,2023-10-21 18:13:35,15.08846237,0.0001059,53.2158,109.3887,86.7632,273.3481,0.00015953,2.252e-05,0.0,0 STARLINK-4105,1 53168U 22083AN  23294.75944158  .00002252  00000-0  15953-3 0  9998,2 53168  53.2158 109.3887 0001059  86.7632 273.3481 15.08846237 70663,6917.861,95.437,540.459,538.994,0.0
53168.0,STARLINK-4105,PAYLOAD,2023-10-21 21:24:21,15.08851804,0.0001481,53.2147,108.7944,78.4871,281.6287,0.00024456,3.608e-05,0.0,0 STARLINK-4105,1 53168U 22083AN  23294.89191881  .00003608  00000-0  24456-3 0  9994,2 53168  53.2147 108.7944 0001481  78.4871 281.6287 15.08851804 70055,6917.844,95.437,540.734,538.685,0.0
53168.0,STARLINK-4105,PAYLOAD,2023-10-22 05:21:18,15.08836603,0.0001862,53.2158,107.3058,90.9799,269.1406,6.3682e-05,7.25e-06,0.0,0 STARLINK-4105,1 53168U 22083AN  23295.22312727  .00000725  00000-0  63682-4 0  9998,2 53168  53.2158 107.3058 0001862  90.9799 269.1406 15.08836603 70738,6917.891,95.438,541.044,538.468,0.0
53168.0,STARLINK-4105,PAYLOAD,2023-10-22 18:04:23,15.08832314,0.0001512,53.2153,104.9271,91.5456,268.5709,1.6837e-05,-2e-07,0.0,0 STARLINK-4105,1 53168U 22083AN  23295.75305035 -.00000020  00000-0  16837-4 0  9999,2 53168  53.2153 104.9271 0001512  91.5456 268.5709 15.08832314 70185,6917.904,95.438,540.815,538.723,0.0
53168.0,STARLINK-4105,PAYLOAD,2023-10-23 11:33:37,15.08845021,0.0001528,53.2156,101.6566,91.4658,268.6509,0.00015703,2.212e-05,0.0,0 STARLINK-4105,1 53168U 22083AN  23296.48168547  .00002212  00000-0  15703-3 0  9999,2 53168  53.2156 101.6566 0001528  91.4658 268.6509 15.08845021 70929,6917.865,95.437,540.787,538.673,0.0
53168.0,STARLINK-4105,PAYLOAD,2023-10-23 22:41:19,15.08853198,0.0001508,53.216,99.5758,90.7162,269.4003,0.00046115,7.061e-05,0.0,0 STARLINK-4105,1 53168U 22083AN  23296.94536310  .00007061  00000-0  46115-3 0  9995,2 53168  53.2160  99.5758 0001508  90.7162 269.4003 15.08853198 70362,6917.84,95.437,540.748,538.662,0.0
53168.0,STARLINK-4105,PAYLOAD,2023-10-24 03:27:29,15.08839128,0.0001701,53.2157,98.683,86.0894,274.0293,0.00011893,1.605e-05,0.0,0 STARLINK-4105,1 53168U 22083AN  23297.14408838  .00001605  00000-0  11893-3 0  9994,2 53168  53.2157  98.6830 0001701  86.0894 274.0293 15.08839128 71028,6917.883,95.438,540.925,538.571,0.0
53168.0,STARLINK-4105,PAYLOAD,2023-10-24 12:59:47,15.08845109,0.0001477,53.2158,96.8988,92.2493,267.8669,0.00025858,3.83e-05,0.0,0 STARLINK-4105,1 53168U 22083AN  23297.54152675  .00003830  00000-0  25858-3 0  9991,2 53168  53.2158  96.8988 0001477  92.2493 267.8669 15.08845109 70456,6917.865,95.437,540.752,538.708,0.0
53168.0,STARLINK-4105,PAYLOAD,2023-10-25 14:25:58,15.08840158,0.0001402,53.2158,92.141,92.2625,267.8527,0.00015361,2.158e-05,0.0,0 STARLINK-4105,1 53168U 22083AN  23298.60136715  .00002158  00000-0  15361-3 0  9996,2 53168  53.2158  92.1410 0001402  92.2625 267.8527 15.08840158 71240,6917.88,95.438,540.715,538.775,0.0
53168.0,STARLINK-4105,PAYLOAD,2023-10-26 11:05:59,15.08836299,0.000138,53.2158,88.2753,90.7357,269.3793,7.6945e-05,9.37e-06,0.0,0 STARLINK-4105,1 53168U 22083AN  23299.46249082  .00000937  00000-0  76945-4 0  9992,2 53168  53.2158  88.2753 0001380  90.7357 269.3793 15.08836299 71373,6917.892,95.438,540.711,538.802,0.0
53168.0,STARLINK-4105,PAYLOAD,2023-10-26 14:16:45,15.08839395,0.0001416,53.2164,87.6808,91.2376,268.8778,0.00012545,1.709e-05,0.0,0 STARLINK-4105,1 53168U 22083AN  23299.59497051  .00001709  00000-0  12545-3 0  9990,2 53168  53.2164  87.6808 0001416  91.2376 268.8778 15.08839395 70760,6917.882,95.438,540.727,538.768,0.0
53168.0,STARLINK-4105,PAYLOAD,2023-10-26 17:27:31,15.08843653,0.0001422,53.2164,87.0861,91.0022,269.1133,0.00015553,2.188e-05,0.0,0 STARLINK-4105,1 53168U 22083AN  23299.72744836  .00002188  00000-0  15553-3 0  9995,2 53168  53.2164  87.0861 0001422  91.0022 269.1133 15.08843653 70789,6917.869,95.437,540.718,538.751,0.0
